[{"OBJECT_NAME":"NUSAT-44 (MARIA MITCHELL)","OBJECT_ID":"2024-043AA","EPOCH":"2026-03-09T22:12:18.524160","MEAN_MOTION":15.29764305,"ECCENTRICITY":0.0007331,"INCLINATION":97.5299,"RA_OF_ASC_NODE":207.7691,"ARG_OF_PERICENTER":214.9017,"MEAN_ANOMALY":145.1743,"EPHEMERIS_TYPE":0,"CLASSIFICATION_TYPE":"U","NORAD_CAT_ID":59122,"ELEMENT_SET_NO":999,"REV_AT_EPOCH":11209,"BSTAR":0.00061063193,"MEAN_MOTION_DOT":0.00017562,"MEAN_MOTION_DDOT":0},{"OBJECT_NAME":"STARLINK-36050","OBJECT_ID":"2025-270Q","EPOCH":"2026-03-09T22:59:12.405408","MEAN_MOTION":15.27586635,"ECCENTRICITY":6.285e-5,"INCLINATION":43.0009,"RA_OF_ASC_NODE":54.9482,"ARG_OF_PERICENTER":313.1805,"MEAN_ANOMALY":46.8994,"EPHEMERIS_TYPE":0,"CLASSIFICATION_TYPE":"U","NORAD_CAT_ID":66602,"ELEMENT_SET_NO":999,"REV_AT_EPOCH":1764,"BSTAR":0.00088207967,"MEAN_MOTION_DOT":0.00024095,"MEAN_MOTION_DDOT":0}]
